# Made by eph2tle, compiled Dec  6 2022 20:03:35
# Run at Wed Dec 14 08:29:12 2022
#
#    The following TLEs (Two-Line Elements) were generated by fitting
# a numerically-integrated ephemeris,  based on the orbit given below,
# to the SDP4/SGP4 models.  Each TLE is good for the interval between
# its epoch and the epoch of the subsequent TLE (usually one day).
# The maximum deviation between the numerically integrated ephemerides
# and the TLE-based ephemeris, in kilometers,  is given for each TLE
# as the "worst residual".
#
#    This fitting is done using the 'eph2tle' code packaged with Find_Orb.
# The code has details on how the TLEs were computed :
#
#    https://github.com/Bill-Gray/find_orb/eph2tle.cpp
#
#    Be warned:  the error given is that between the numerically
# integrated ephems and the TLE model.  There will usually be at
# least some additional difference between the ephems and the actual
# motion of the satellite,  especially if the ephemerides are based
# on a short arc.  If the following orbital elements say something
# like "[based on] 10 observations 2015 Jan. 1-13",  and the TLEs
# are for 2015 May,  the extrapolation may be tenuous at best.  If
# your application requires a specific level of accuracy,  you may
# want to contact me;  I can give you some idea as to the fit of the
# underlying data (and possibly TLEs based on newer data).
#
#   You can usually find the underlying observational data,  and the
# fitted orbit,  residuals,  ephemerides,  and sometimes some comments
# about the object,  among the pages listed at
#
#    https://www.projectpluto.com/pluto/mpecs/pseudo.htm
#
#    WARNING:  for this object,  "normal" TLEs cannot be fitted.  (This
# usually means an object with an hyperbolic or nearly-parabolic orbit.)
# For this and similar cases,   an alternative model is used,  in which
# most of the traditional TLE data is replaced by six signed 8-digit hex
# numbers.  These six numbers are a state vector,  numerically integrated
# using a simplified force model.  This is necessary for objects at L2 or
# L1,  and sometimes for objects in high orbits where the SDP4/SGP4 model
# fails.  Some documentation is in 'get_el.cpp' in the source code at
# https://www.github.com/Bill-Gray/sat_code ; look for 'hex' in that file,
# with the actual integration done in 'sdp4.cpp'.  But be aware:  it's my
# own extension,  doesn't work with other code,  and is therefore used
# only when necessary.
#
#    Also,  if you use a TLE outside the "correct" time range (between
# its MJD and that of the next TLE),  all bets are off.  I've carefully
# computed and minimized the worst error over the "correct" time frame,
# but the ephemeris may (or may not) diverge wildly outside of it.
#
# Ephem range: 59925.000000 60004.000000 1.000000
# Created Wed Dec 14 08:29:06 2022
# Ephemeris start: 12 Dec 2022  0:00:00
# Ephemeris end:    1 Mar 2023  0:00:00
# Times are all TDT
# Positions/velocities are in equatorial J2000
# Orbital elements:  2022-168C = Hakuto-R/LFL booster = NORAD 54698
#    Perigee 2022 Dec 11.3473770 +/- 0.000264 TT =  8:20:13.37 (JD 2459924.8473770)
# Epoch 2022 Dec 13.0 TT = JDT 2459926.5                           Find_Orb
# M   6.5284615184 +/- 0.012          (J2000 equator)
# n   3.9503635827 +/- 0.00738        Peri.  219.2207747 +/- 0.0024
# a855418.80549 +/- 1065              Node    40.9628165 +/- 0.0017
# e   0.992100502 +/- 1.09e-5         Incl.   29.1195990 +/- 0.0017
# P  91.13d                  H 26.68  G  0.15   U  9.4
# q 6757.3784159 +/- 2.7    Q 0.0113910727 +/- 1.42e-5
# From 17 observations 2022 Dec. 12-13 (44.5 hr); mean residual 0".163
#
# 1 NoradU COSPAR   Epoch.epoch     dn/dt/2  d2n/dt2/6 BSTAR    T El# C
# 2 NoradU Inclina RAAscNode Eccent  ArgPeri MeanAno  MeanMotion Rev# C

# Worst residual: 0.56 km
# MJD 59925.000000 (2022 Dec 12  0:00)
2022-168C = Hakuto-R/LFL booster = NORAD 54698
1 54698U 22168C   22345.99919926 +001ISJUY +002ANVKY +000ELRIZH 18093
2 54698                          +0004KPTT +000B15AG +0002Y211     00

# Worst residual: 0.60 km
# MJD 59926.000000 (2022 Dec 13  0:00)
2022-168C = Hakuto-R/LFL booster = NORAD 54698
1 54698U 22168C   22346.99919926 +002C9FO6 +004HIRO4 +0010UFX8H 18095
2 54698                          +0002OO7F +0007UAU8 +0002AUT8     08

# Worst residual: 0.66 km
# MJD 59927.000000 (2022 Dec 14  0:00)
2022-168C = Hakuto-R/LFL booster = NORAD 54698
1 54698U 22168C   22347.99919926 +002W9261 +0066W73O +001J8R7WH 18090
2 54698                          +00020QUA +0006HXSI +0001ZFUM     03

# Worst residual: 0.96 km
# MJD 59928.000000 (2022 Dec 15  0:00)
2022-168C = Hakuto-R/LFL booster = NORAD 54698
1 54698U 22168C   22348.99919926 +003C02PN +007N9QGM +001ZG98IH 18092
2 54698                          +0001NKQZ +0005OIM7 +0001S2VJ     00

# Worst residual: 0.88 km
# MJD 59929.000000 (2022 Dec 16  0:00)
2022-168C = Hakuto-R/LFL booster = NORAD 54698
1 54698U 22168C   22349.99919926 +003P7GAT +008XR9Z1 +002E5X9JH 18098
2 54698                          +0001EZXT +00053Y5R +0001MSDI     09

# Worst residual: 0.76 km
# MJD 59930.000000 (2022 Dec 17  0:00)
2022-168C = Hakuto-R/LFL booster = NORAD 54698
1 54698U 22168C   22350.99919926 +0040O9U0 +00A3YXRY +002RRQV9H 18093
2 54698                          +00018VCZ +0004OHRL +0001IRN0     08

# Worst residual: 0.94 km
# MJD 59931.000000 (2022 Dec 18  0:00)
2022-168C = Hakuto-R/LFL booster = NORAD 54698
1 54698U 22168C   22351.99919926 +004AV0D3 +00B6WEBY +0034ITDZH 18097
2 54698                          +000147SK +0004CDL3 +0001FMDK     04

# Worst residual: 0.94 km
# MJD 59932.000000 (2022 Dec 19  0:00)
2022-168C = Hakuto-R/LFL booster = NORAD 54698
1 54698U 22168C   22352.99919926 +004K1VXW +00C77XCI +003GLMQQH 18090
2 54698                          +00010I49 +00042ML0 +0001D4H6     05

# Worst residual: 0.78 km
# MJD 59933.000000 (2022 Dec 20  0:00)
2022-168C = Hakuto-R/LFL booster = NORAD 54698
1 54698U 22168C   22353.99919926 +004SFIUZ +00D5F7SC +003S55AAH 18098
2 54698                          +0000XEJN +0003UNFY +0001B4US     02

# Worst residual: 0.59 km
# MJD 59934.000000 (2022 Dec 21  0:00)
2022-168C = Hakuto-R/LFL booster = NORAD 54698
1 54698U 22168C   22354.99919926 +005047FH +00E1VSLK +00439AZKH 18093
2 54698                          +0000UP1R +0003O20V +00019K06     06

# Worst residual: 0.51 km
# MJD 59935.000000 (2022 Dec 22  0:00)
2022-168C = Hakuto-R/LFL booster = NORAD 54698
1 54698U 22168C   22355.99919926 +00576KSB +00EWWB8P +004E1BH2H 18094
2 54698                          +0000S7SG +0003IK4P +00018B8P     05

# Worst residual: 0.63 km
# MJD 59936.000000 (2022 Dec 23  0:00)
2022-168C = Hakuto-R/LFL booster = NORAD 54698
1 54698U 22168C   22356.99919926 +005DO2JT +00FQP9ME +004OJT3OH 18095
2 54698                          +0000PUGY +0003DXSX +00017CA0     05

# Worst residual: 0.83 km
# MJD 59937.000000 (2022 Dec 24  0:00)
2022-168C = Hakuto-R/LFL booster = NORAD 54698
1 54698U 22168C   22357.99919926 +005JL8WW +00GJHF5T +004YUVEPH 18095
2 54698                          +0000NI3I +0003A0FW +00016L0W     07

# Worst residual: 0.94 km
# MJD 59938.000000 (2022 Dec 25  0:00)
2022-168C = Hakuto-R/LFL booster = NORAD 54698
1 54698U 22168C   22358.99919926 +005OY3LS +00HBE2O9 +005904ILH 18091
2 54698                          +0000L4WW +00036MFS +00015ZJL     03

# Worst residual: 0.82 km
# MJD 59939.000000 (2022 Dec 26  0:00)
2022-168C = Hakuto-R/LFL booster = NORAD 54698
1 54698U 22168C   22359.99919926 +005TQC42 +00I2JAJ6 +005J0QO4H 18093
2 54698                          +0000IQ9Y +00033N47 +00015I42     02

# Worst residual: 0.52 km
# MJD 59940.000000 (2022 Dec 27  0:00)
2022-168C = Hakuto-R/LFL booster = NORAD 54698
1 54698U 22168C   22360.99919926 +005XXMCH +00IT04U2 +005SXIGXH 18093
2 54698                          +0000GAET +00030YRF +000153B6     02

# Worst residual: 0.30 km
# MJD 59941.000000 (2022 Dec 28  0:00)
2022-168C = Hakuto-R/LFL booster = NORAD 54698
1 54698U 22168C   22361.99919926 +0061JQQD +00JIUVRP +0062QXS4H 18097
2 54698                          +0000DU2X +0002YIMA +00014Q2P     05

# Worst residual: 0.23 km
# MJD 59942.000000 (2022 Dec 29  0:00)
2022-168C = Hakuto-R/LFL booster = NORAD 54698
1 54698U 22168C   22362.99919926 +0064KPDS +00K859IG +006CHAUPH 18097
2 54698                          +0000BE95 +0002W8SC +00014DP8     01

# Worst residual: 0.45 km
# MJD 59943.000000 (2022 Dec 30  0:00)
2022-168C = Hakuto-R/LFL booster = NORAD 54698
1 54698U 22168C   22363.99919926 +00670QSC +00KWWMWT +006M4R5QH 18098
2 54698                          +00008ZVB +0002U41T +000141RY     05

# Worst residual: 0.63 km
# MJD 59944.000000 (2022 Dec 31  0:00)
2022-168C = Hakuto-R/LFL booster = NORAD 54698
1 54698U 22168C   22364.99919926 +0068WAWP +00LL64LU +006VPDNVH 18091
2 54698                          +00006NPE +0002S3P1 +00013Q4A     04

# Worst residual: 0.69 km
# MJD 59945.000000 (2023 Jan  1  0:00)
2022-168C = Hakuto-R/LFL booster = NORAD 54698
1 54698U 22168C   22365.99919926 +006A7ZKB +00M8YQP5 +007578FZH 18095
2 54698                          +00004EC5 +0002Q7D4 +00013EP4     04

# Worst residual: 0.65 km
# MJD 59946.000000 (2023 Jan  2  0:00)
2022-168C = Hakuto-R/LFL booster = NORAD 54698
1 54698U 22168C   23001.99919926 +006B0IPE +00MWBFBC +007EMDTFH 18093
2 54698                          +0000285E +0002OEY1 +000133L9     08

# Worst residual: 0.59 km
# MJD 59947.000000 (2023 Jan  3  0:00)
2022-168C = Hakuto-R/LFL booster = NORAD 54698
1 54698U 22168C   23002.99919926 +006BAOWA +00NJ94G0 +007NYX30H 18090
2 54698                          +000005DD +0002MQI8 +00012SXX     02

# Worst residual: 0.69 km
# MJD 59948.000000 (2023 Jan  4  0:00)
2022-168C = Hakuto-R/LFL booster = NORAD 54698
1 54698U 22168C   23003.99919926 +006B3C47 +00O5ST92 +007X8Z0VH 18093
2 54698                          -00001TW6 +0002L68S +00012IY4     05

